CUTE-1 (CO-55)          
1 27844U 03031E   26200.49154011  .00000118  00000+0  70118-4 0  9997
2 27844  98.6745 208.6450 0010868  91.6414 268.6010 14.24353085196272
CUBESAT XI-IV (CO-57)   
1 27848U 03031J   26200.49623929  .00000096  00000+0  61252-4 0  9994
2 27848  98.6776 208.3362 0010654 108.0973 252.1367 14.23635874195972
CUBESAT XI-V            
1 28895U 05043F   26200.40443851  .00000628  00000+0  10669-3 0  9993
2 28895  98.3022 356.7103 0015347 102.9295 257.3627 14.72708170106490
CUTE-1.7+APD II (CO-65) 
1 32785U 08021C   26200.59543305  .00001938  00000+0  12438-3 0  9991
2 32785  97.8299 182.6987 0006828 281.1298  78.9163 15.09721824990086
CANX-2                  
1 32790U 08021H   26200.45214582  .00001292  00000+0  93574-4 0  9998
2 32790  97.8659 180.8656 0008622 300.9362  59.1016 15.05818132989666
SEEDS II (CO-66)        
1 32791U 08021J   26200.43979132  .00009500  00000+0  29358-3 0  9994
2 32791  97.7533 199.9049 0003546 147.5625 212.5835 15.33752550992234
SWISSCUBE               
1 35932U 09051B   26200.52945481  .00000424  00000+0  93264-4 0  9992
2 35932  98.4003 108.9777 0008011 107.5218 252.6859 14.62535142893887
BEESAT-1                
1 35933U 09051C   26200.28201476  .00000366  00000+0  83262-4 0  9997
2 35933  98.3929 108.2939 0006330 119.2853 240.8981 14.61765433893875
ITUPSAT1                
1 35935U 09051E   26200.30105315  .00000332  00000+0  78497-4 0  9994
2 35935  98.4014 107.4706 0008328 131.6954 228.4959 14.60482021893421
TISAT 1                 
1 36799U 10035E   26200.31124408  .00010455  00000+0  33239-3 0  9993
2 36799  98.0713 149.7423 0004720 111.8799 248.2944 15.32826341872626
STRAND-1                
1 39090U 13009E   26200.49956115  .00000108  00000+0  50737-4 0  9998
2 39090  98.3939  19.9412 0009610 129.5054 230.6984 14.37180292701706
BRITE-AUSTRIA           
1 39091U 13009F   26200.45681733  .00000061  00000+0  35166-4 0  9993
2 39091  98.4012  19.0965 0010984 138.8360 221.3657 14.36553452701685
NEE-01 PEGASO           
1 39151U 13018B   26200.35248444  .00001491  00000+0  14616-3 0  9991
2 39151  98.1263 345.5756 0013570  62.0509 298.2082 14.93800794715507
POPACS 2                
1 39269U 13055E   26200.17454465  .00013740 -92985-6  22340-3 0  9998
2 39269  80.9910 107.5625 0414587  91.1196 273.7536 14.92128884667986
POPACS 3                
1 39270U 13055F   26200.40730755  .00007218  00000+0  17176-3 0  9998
2 39270  81.0009 194.2319 0548230 331.8183  25.4302 14.56727330643242
ZACUBE-1 (TSHEPISOSAT)  
1 39417U 13066B   26200.46684057  .00001295  00000+0  10340-3 0  9997
2 39417  97.8002 162.9610 0044074 141.4963 218.9420 15.01340040685579
WNISAT-1                
1 39423U 13066H   26200.39621042  .00000555  00000+0  10876-3 0  9993
2 39423  97.7241 347.2727 0164095 130.1631 231.4073 14.58125216671420
TRITON-1                
1 39427U 13066M   26200.57462992  .00000827  00000+0  10417-3 0  9997
2 39427  97.8218 109.6410 0090922 128.0143 232.9323 14.81803375678885
GOMX-1                  
1 39430U 13066Q   26200.59698182  .00000660  00000+0  10611-3 0  9996
2 39430  97.6464  39.0142 0127831 334.0447  25.4384 14.69548620674674
CUBEBUG-2 (LO-74)       
1 39440U 13066AA  26200.41472023  .00001910  00000+0  17976-3 0  9992
2 39440  97.8920 149.5375 0055552 281.0700  78.4276 14.93984149681800
NEE-02 KRYSAOR          
1 39441U 13066AB  26200.38065915  .00001031  00000+0  11804-3 0  9995
2 39441  97.8896 139.3698 0065044 325.4301  34.2693 14.86748666680980
FUNCUBE-1 (AO-73)       
1 39444U 13066AE  26200.46791472  .00004303  00000+0  26567-3 0  9998
2 39444  97.8299 172.5997 0038009  93.7794 266.7781 15.09853025684530
UWE-3                   
1 39446U 13066AG  26200.43044749  .00002096  00000+0  18244-3 0  9995
2 39446  97.8723 156.7295 0047658 209.9305 149.9190 14.97216655682406
BRITE-CA1 (TORONTO)     
1 40020U 14033L   26200.31108209  .00000524  00000+0  86289-4 0  9998
2 40020  97.9776 328.6539 0078789 173.0970 187.1343 14.72727256646944
DUCHIFAT-1              
1 40021U 14033M   26200.11833129  .00096187  00000+0  73779-3 0  9992
2 40021  98.0414 263.9486 0003298 230.7218 129.3750 15.71786235660754
NANOSATC-BR1            
1 40024U 14033Q   26200.34138363  .00008884  00000+0  28663-3 0  9997
2 40024  98.0708 235.6013 0005145  86.7681 273.4148 15.32407488658904
QB50P1                  
1 40025U 14033R   26200.30727439  .00004287  00000+0  21014-3 0  9998
2 40025  98.0971 213.7167 0010507 112.7163 247.5182 15.18701826657903
QB50P2                  
1 40032U 14033Y   26200.52184993  .00003463  00000+0  18647-3 0  9995
2 40032  98.0770 199.4267 0009209  71.8039 288.4193 15.15540194657567
PERSEUS-M2              
1 40037U 14033AD  26200.57942977 -.00000272  00000+0 -18971-4 0  9997
2 40037  97.9986 151.7852 0011218 185.0641 175.0468 14.95590987655623
PERSEUS-M1              
1 40039U 14033AF  26200.41596949  .00000494  00000+0  49782-4 0  9994
2 40039  97.9655 145.0810 0011210 182.4101 177.7067 14.95723392655455
